SL-16 R/B               
1 25400U 98043G   26025.30029341  .00000167  00000+0  88793-4 0  9994
2 25400  98.8186 338.3759 0010545 135.6546 224.5480 14.26038260432800
SL-16 R/B               
1 25407U 98045B   26025.13377005  .00000162  00000+0  10577-3 0  9996
2 25407  71.0108 273.1720 0005123  93.0192 267.1518 14.16186592420935
ISS (ZARYA)             
1 25544U 98067A   26025.20681506  .00014825  00000+0  28434-3 0  9996
2 25544  51.6319 287.2988 0011011  28.2365 331.9218 15.48167532549592
CZ-4B R/B               
1 25732U 99025C   26025.13807657  .00000125  00000+0  80856-4 0  9994
2 25732  98.6708  70.4346 0038152 109.7861 317.1534 14.18255889381999
OKEAN-O                 
1 25860U 99039A   26025.12073912  .00001478  00000+0  20109-3 0  9995
2 25860  97.9534  85.4346 0001877  98.9251 261.2173 14.80256341427949
SL-16 R/B               
1 25861U 99039B   26025.14185832  .00001170  00000+0  15527-3 0  9990
2 25861  98.0060  84.2827 0015704  42.8461 317.3972 14.81663786430414
DELTA 2 R/B             
1 25876U 99041E   26024.69105731  .00003852  00000+0  65649-3 0  9997
2 25876  51.7623 116.9731 0502956 218.4249 137.9846 14.11622434356818
HELIOS 1B               
1 25977U 99064A   26025.26185535  .00003421  00000+0  38371-3 0  9992
2 25977  98.1734 286.2209 0001290 132.6548 227.4776 14.87500664678809
TERRA                   
1 25994U 99068A   26025.29612451  .00000845  00000+0  18143-3 0  9992
2 25994  97.9683  80.3687 0001636 353.5009  78.4695 14.60962411388749
SL-16 R/B               
1 26070U 00006B   26025.20849240  .00000266  00000+0  15917-3 0  9994
2 26070  71.0007 189.2597 0018654 250.0902 109.8212 14.15814172342405
TITAN 4B R/B            
1 26474U 00047B   26025.29198103  .00006625  00000+0  41757-3 0  9997
2 26474  67.9891 162.5058 0036840  89.6443 270.8928 15.09170949386364
ENVISAT                 
1 27386U 02009A   26025.30649410  .00000271  00000+0  10161-3 0  9990
2 27386  98.3660 339.9568 0001227  91.9278  34.7909 14.39018919252939
