CCSDS_OMM_VERS = 2.0
CREATION_DATE  = 
ORIGINATOR     = 

OBJECT_NAME    = SL-16 R/B
OBJECT_ID      = 1998-043G
CENTER_NAME    = EARTH
REF_FRAME      = TEME
TIME_SYSTEM    = UTC
MEAN_ELEMENT_THEORY = SGP/SGP4

EPOCH          = 2026-01-25T07:12:25.350624
MEAN_MOTION    = 14.26038260
ECCENTRICITY   = .00105457
INCLINATION    = 98.8186
RA_OF_ASC_NODE = 338.3759
ARG_OF_PERICENTER = 135.6546
MEAN_ANOMALY   = 224.5480

EPHEMERIS_TYPE = 0
CLASSIFICATION_TYPE = U
NORAD_CAT_ID   = 25400
ELEMENT_SET_NO = 999
REV_AT_EPOCH   = 43280
BSTAR          = .88792951E-4
MEAN_MOTION_DOT = .167E-5
MEAN_MOTION_DDOT = 0

CCSDS_OMM_VERS = 2.0
CREATION_DATE  = 
ORIGINATOR     = 

OBJECT_NAME    = SL-16 R/B
OBJECT_ID      = 1998-045B
CENTER_NAME    = EARTH
REF_FRAME      = TEME
TIME_SYSTEM    = UTC
MEAN_ELEMENT_THEORY = SGP/SGP4

EPOCH          = 2026-01-25T03:12:37.732320
MEAN_MOTION    = 14.16186592
ECCENTRICITY   = .00051236
INCLINATION    = 71.0108
RA_OF_ASC_NODE = 273.1720
ARG_OF_PERICENTER = 93.0192
MEAN_ANOMALY   = 267.1518

EPHEMERIS_TYPE = 0
CLASSIFICATION_TYPE = U
NORAD_CAT_ID   = 25407
ELEMENT_SET_NO = 999
REV_AT_EPOCH   = 42093
BSTAR          = .10576627E-3
MEAN_MOTION_DOT = .162E-5
MEAN_MOTION_DDOT = 0

CCSDS_OMM_VERS = 2.0
CREATION_DATE  = 
ORIGINATOR     = 

OBJECT_NAME    = ISS (ZARYA)
OBJECT_ID      = 1998-067A
CENTER_NAME    = EARTH
REF_FRAME      = TEME
TIME_SYSTEM    = UTC
MEAN_ELEMENT_THEORY = SGP/SGP4

EPOCH          = 2026-01-25T04:57:48.821184
MEAN_MOTION    = 15.48167532
ECCENTRICITY   = .00110116
INCLINATION    = 51.6319
RA_OF_ASC_NODE = 287.2988
ARG_OF_PERICENTER = 28.2365
MEAN_ANOMALY   = 331.9218

EPHEMERIS_TYPE = 0
CLASSIFICATION_TYPE = U
NORAD_CAT_ID   = 25544
ELEMENT_SET_NO = 999
REV_AT_EPOCH   = 54959
BSTAR          = .28434035E-3
MEAN_MOTION_DOT = .14825E-3
MEAN_MOTION_DDOT = 0

CCSDS_OMM_VERS = 2.0
CREATION_DATE  = 
ORIGINATOR     = 

OBJECT_NAME    = CZ-4B R/B
OBJECT_ID      = 1999-025C
CENTER_NAME    = EARTH
REF_FRAME      = TEME
TIME_SYSTEM    = UTC
MEAN_ELEMENT_THEORY = SGP/SGP4

EPOCH          = 2026-01-25T03:18:49.815648
MEAN_MOTION    = 14.18255889
ECCENTRICITY   = .00381527
INCLINATION    = 98.6708
RA_OF_ASC_NODE = 70.4346
ARG_OF_PERICENTER = 109.7861
MEAN_ANOMALY   = 317.1534

EPHEMERIS_TYPE = 0
CLASSIFICATION_TYPE = U
NORAD_CAT_ID   = 25732
ELEMENT_SET_NO = 999
REV_AT_EPOCH   = 38199
BSTAR          = .80856155E-4
MEAN_MOTION_DOT = .125E-5
MEAN_MOTION_DDOT = 0

CCSDS_OMM_VERS = 2.0
CREATION_DATE  = 
ORIGINATOR     = 

OBJECT_NAME    = OKEAN-O
OBJECT_ID      = 1999-039A
CENTER_NAME    = EARTH
REF_FRAME      = TEME
TIME_SYSTEM    = UTC
MEAN_ELEMENT_THEORY = SGP/SGP4

EPOCH          = 2026-01-25T02:53:51.859968
MEAN_MOTION    = 14.80256341
ECCENTRICITY   = .00018778
INCLINATION    = 97.9534
RA_OF_ASC_NODE = 85.4346
ARG_OF_PERICENTER = 98.9251
MEAN_ANOMALY   = 261.2173

EPHEMERIS_TYPE = 0
CLASSIFICATION_TYPE = U
NORAD_CAT_ID   = 25860
ELEMENT_SET_NO = 999
REV_AT_EPOCH   = 42794
BSTAR          = .20108594E-3
MEAN_MOTION_DOT = .1478E-4
MEAN_MOTION_DDOT = 0

CCSDS_OMM_VERS = 2.0
CREATION_DATE  = 
ORIGINATOR     = 

OBJECT_NAME    = SL-16 R/B
OBJECT_ID      = 1999-039B
CENTER_NAME    = EARTH
REF_FRAME      = TEME
TIME_SYSTEM    = UTC
MEAN_ELEMENT_THEORY = SGP/SGP4

EPOCH          = 2026-01-25T03:24:16.558848
MEAN_MOTION    = 14.81663786
ECCENTRICITY   = .0015704
INCLINATION    = 98.0060
RA_OF_ASC_NODE = 84.2827
ARG_OF_PERICENTER = 42.8461
MEAN_ANOMALY   = 317.3972

EPHEMERIS_TYPE = 0
CLASSIFICATION_TYPE = U
NORAD_CAT_ID   = 25861
ELEMENT_SET_NO = 999
REV_AT_EPOCH   = 43041
BSTAR          = .15526614E-3
MEAN_MOTION_DOT = .117E-4
MEAN_MOTION_DDOT = 0

CCSDS_OMM_VERS = 2.0
CREATION_DATE  = 
ORIGINATOR     = 

OBJECT_NAME    = DELTA 2 R/B
OBJECT_ID      = 1999-041E
CENTER_NAME    = EARTH
REF_FRAME      = TEME
TIME_SYSTEM    = UTC
MEAN_ELEMENT_THEORY = SGP/SGP4

EPOCH          = 2026-01-24T16:35:07.351584
MEAN_MOTION    = 14.11622434
ECCENTRICITY   = .05029561
INCLINATION    = 51.7623
RA_OF_ASC_NODE = 116.9731
ARG_OF_PERICENTER = 218.4249
MEAN_ANOMALY   = 137.9846

EPHEMERIS_TYPE = 0
CLASSIFICATION_TYPE = U
NORAD_CAT_ID   = 25876
ELEMENT_SET_NO = 999
REV_AT_EPOCH   = 35681
BSTAR          = .65649079E-3
MEAN_MOTION_DOT = .3852E-4
MEAN_MOTION_DDOT = 0

CCSDS_OMM_VERS = 2.0
CREATION_DATE  = 
ORIGINATOR     = 

OBJECT_NAME    = HELIOS 1B
OBJECT_ID      = 1999-064A
CENTER_NAME    = EARTH
REF_FRAME      = TEME
TIME_SYSTEM    = UTC
MEAN_ELEMENT_THEORY = SGP/SGP4

EPOCH          = 2026-01-25T06:17:04.302240
MEAN_MOTION    = 14.87500664
ECCENTRICITY   = .00012902
INCLINATION    = 98.1734
RA_OF_ASC_NODE = 286.2209
ARG_OF_PERICENTER = 132.6548
MEAN_ANOMALY   = 227.4776

EPHEMERIS_TYPE = 0
CLASSIFICATION_TYPE = U
NORAD_CAT_ID   = 25977
ELEMENT_SET_NO = 999
REV_AT_EPOCH   = 67880
BSTAR          = .383712E-3
MEAN_MOTION_DOT = .3421E-4
MEAN_MOTION_DDOT = 0

CCSDS_OMM_VERS = 2.0
CREATION_DATE  = 
ORIGINATOR     = 

OBJECT_NAME    = TERRA
OBJECT_ID      = 1999-068A
CENTER_NAME    = EARTH
REF_FRAME      = TEME
TIME_SYSTEM    = UTC
MEAN_ELEMENT_THEORY = SGP/SGP4

EPOCH          = 2026-01-25T07:06:25.157664
MEAN_MOTION    = 14.60962411
ECCENTRICITY   = .0001636
INCLINATION    = 97.9683
RA_OF_ASC_NODE = 80.3687
ARG_OF_PERICENTER = 353.5009
MEAN_ANOMALY   = 78.4695

EPHEMERIS_TYPE = 0
CLASSIFICATION_TYPE = U
NORAD_CAT_ID   = 25994
ELEMENT_SET_NO = 999
REV_AT_EPOCH   = 38874
BSTAR          = .18142741E-3
MEAN_MOTION_DOT = .845E-5
MEAN_MOTION_DDOT = 0

CCSDS_OMM_VERS = 2.0
CREATION_DATE  = 
ORIGINATOR     = 

OBJECT_NAME    = SL-16 R/B
OBJECT_ID      = 2000-006B
CENTER_NAME    = EARTH
REF_FRAME      = TEME
TIME_SYSTEM    = UTC
MEAN_ELEMENT_THEORY = SGP/SGP4

EPOCH          = 2026-01-25T05:00:13.743360
MEAN_MOTION    = 14.15814172
ECCENTRICITY   = .00186541
INCLINATION    = 71.0007
RA_OF_ASC_NODE = 189.2597
ARG_OF_PERICENTER = 250.0902
MEAN_ANOMALY   = 109.8212

EPHEMERIS_TYPE = 0
CLASSIFICATION_TYPE = U
NORAD_CAT_ID   = 26070
ELEMENT_SET_NO = 999
REV_AT_EPOCH   = 34240
BSTAR          = .15916513E-3
MEAN_MOTION_DOT = .266E-5
MEAN_MOTION_DDOT = 0

CCSDS_OMM_VERS = 2.0
CREATION_DATE  = 
ORIGINATOR     = 

OBJECT_NAME    = TITAN 4B R/B
OBJECT_ID      = 2000-047B
CENTER_NAME    = EARTH
REF_FRAME      = TEME
TIME_SYSTEM    = UTC
MEAN_ELEMENT_THEORY = SGP/SGP4

EPOCH          = 2026-01-25T07:00:27.160992
MEAN_MOTION    = 15.09170949
ECCENTRICITY   = .00368403
INCLINATION    = 67.9891
RA_OF_ASC_NODE = 162.5058
ARG_OF_PERICENTER = 89.6443
MEAN_ANOMALY   = 270.8928

EPHEMERIS_TYPE = 0
CLASSIFICATION_TYPE = U
NORAD_CAT_ID   = 26474
ELEMENT_SET_NO = 999
REV_AT_EPOCH   = 38636
BSTAR          = .41757201E-3
MEAN_MOTION_DOT = .6625E-4
MEAN_MOTION_DDOT = 0

CCSDS_OMM_VERS = 2.0
CREATION_DATE  = 
ORIGINATOR     = 

OBJECT_NAME    = ENVISAT
OBJECT_ID      = 2002-009A
CENTER_NAME    = EARTH
REF_FRAME      = TEME
TIME_SYSTEM    = UTC
MEAN_ELEMENT_THEORY = SGP/SGP4

EPOCH          = 2026-01-25T07:21:21.090240
MEAN_MOTION    = 14.39018919
ECCENTRICITY   = .00012275
INCLINATION    = 98.3660
RA_OF_ASC_NODE = 339.9568
ARG_OF_PERICENTER = 91.9278
MEAN_ANOMALY   = 34.7909

EPHEMERIS_TYPE = 0
CLASSIFICATION_TYPE = U
NORAD_CAT_ID   = 27386
ELEMENT_SET_NO = 999
REV_AT_EPOCH   = 25293
BSTAR          = .10161408E-3
MEAN_MOTION_DOT = .271E-5
MEAN_MOTION_DDOT = 0

